start=new Date('2021-11-20T00:00:00.000Z').valueOf();
sats=[{"TIME_SYSTEM":"UTC","ELEMENT_SET_NO":"999","SEMIMAJOR_AXIS":"6925.344","NORAD_CAT_ID":"47576","MEAN_MOTION_DOT":"-0.00000181","RA_OF_ASC_NODE":"216.3582","APOAPSIS":"548.370","CLASSIFICATION_TYPE":"U","OBJECT_NAME":"STARLINK-1978","EPHEMERIS_TYPE":"0","BSTAR":"0.00000677360000","MEAN_ANOMALY":"288.8229","LAUNCH_DATE":"2021-02-04","COUNTRY_CODE":"US","ARG_OF_PERICENTER":"71.2942","OBJECT_ID":"2021-009AE","FILE":"3218889","REV_AT_EPOCH":"4482","TLE_LINE1":"1 47576U 21009AE  21323.19044073 -.00000181  00000-0  67736-5 0  9995","SITE":"AFETR","INCLINATION":"53.0528","CENTER_NAME":"EARTH","TLE_LINE2":"2 47576  53.0528 216.3582 0001677  71.2942 288.8229 15.06401511 44828","PERIAPSIS":"546.048","DECAY_DATE":null,"RCS_SIZE":"LARGE","ECCENTRICITY":"0.00016770","PERIOD":"95.592","GP_ID":"190045453","MEAN_MOTION":"15.06401511","REF_FRAME":"TEME","MEAN_ELEMENT_THEORY":"SGP4","OBJECT_TYPE":"PAYLOAD","EPOCH":"2021-11-19T04:34:14.079072","MEAN_MOTION_DDOT":"0.0000000000000"},{"INCLINATION":"53.0559","TLE_LINE1":"1 47577U 21009AF  21323.23145478 -.00000303  00000-0 -13983-5 0  9994","SITE":"AFETR","CENTER_NAME":"EARTH","BSTAR":"-0.00000139830000","EPHEMERIS_TYPE":"0","LAUNCH_DATE":"2021-02-04","COUNTRY_CODE":"US","MEAN_ANOMALY":"293.3279","FILE":"3219209","REV_AT_EPOCH":"4401","ARG_OF_PERICENTER":"66.7916","OBJECT_ID":"2021-009AF","MEAN_MOTION_DOT":"-0.00000303","RA_OF_ASC_NODE":"231.1769","OBJECT_NAME":"STARLINK-1979","APOAPSIS":"548.583","CLASSIFICATION_TYPE":"U","TIME_SYSTEM":"UTC","ELEMENT_SET_NO":"999","NORAD_CAT_ID":"47577","SEMIMAJOR_AXIS":"6925.367","GP_ID":"190074140","PERIOD":"95.593","EPOCH":"2021-11-19T05:33:17.692992","MEAN_MOTION_DDOT":"0.0000000000000","REF_FRAME":"TEME","MEAN_MOTION":"15.06394120","MEAN_ELEMENT_THEORY":"SGP4","OBJECT_TYPE":"PAYLOAD","ECCENTRICITY":"0.00019510","DECAY_DATE":null,"RCS_SIZE":"LARGE","TLE_LINE2":"2 47577  53.0559 231.1769 0001951  66.7916 293.3279 15.06394120 44014","PERIAPSIS":"545.880"},{"MEAN_MOTION_DOT":"0.00000130","RA_OF_ASC_NODE":"234.9961","APOAPSIS":"548.561","CLASSIFICATION_TYPE":"U","OBJECT_NAME":"STARLINK-1980","TIME_SYSTEM":"UTC","ELEMENT_SET_NO":"999","SEMIMAJOR_AXIS":"6925.337","NORAD_CAT_ID":"47578","TLE_LINE1":"1 47578U 21009AG  21323.49084434  .00000130  00000-0  27621-4 0  9996","SITE":"AFETR","INCLINATION":"53.0551","CENTER_NAME":"EARTH","BSTAR":"0.00002762100000","EPHEMERIS_TYPE":"0","COUNTRY_CODE":"US","LAUNCH_DATE":"2021-02-04","MEAN_ANOMALY":"287.3802","ARG_OF_PERICENTER":"72.7402","OBJECT_ID":"2021-009AG","FILE":"3219209","REV_AT_EPOCH":"4397","DECAY_DATE":null,"RCS_SIZE":"LARGE","PERIAPSIS":"545.842","TLE_LINE2":"2 47578  53.0551 234.9961 0001963  72.7402 287.3802 15.06403863 43976","PERIOD":"95.592","GP_ID":"190074391","MEAN_ELEMENT_THEORY":"SGP4","MEAN_MOTION":"15.06403863","REF_FRAME":"TEME","OBJECT_TYPE":"PAYLOAD","EPOCH":"2021-11-19T11:46:48.950976","MEAN_MOTION_DDOT":"0.0000000000000","ECCENTRICITY":"0.00019630"},{"OBJECT_NAME":"STARLINK-1981","CLASSIFICATION_TYPE":"U","APOAPSIS":"548.635","MEAN_MOTION_DOT":"-0.00002133","RA_OF_ASC_NODE":"224.7815","SEMIMAJOR_AXIS":"6925.400","NORAD_CAT_ID":"47579","TIME_SYSTEM":"UTC","ELEMENT_SET_NO":"999","CENTER_NAME":"EARTH","INCLINATION":"53.0551","TLE_LINE1":"1 47579U 21009AH  21323.53970778 -.00002133  00000-0 -12438-3 0  9993","SITE":"AFETR","FILE":"3219209","REV_AT_EPOCH":"4412","ARG_OF_PERICENTER":"64.0270","OBJECT_ID":"2021-009AH","BSTAR":"-0.00012438000000","EPHEMERIS_TYPE":"0","LAUNCH_DATE":"2021-02-04","COUNTRY_CODE":"US","MEAN_ANOMALY":"296.0923","RCS_SIZE":"LARGE","DECAY_DATE":null,"TLE_LINE2":"2 47579  53.0551 224.7815 0001979  64.0270 296.0923 15.06383271 44125","PERIAPSIS":"545.894","EPOCH":"2021-11-19T12:57:10.752192","MEAN_MOTION_DDOT":"0.0000000000000","MEAN_MOTION":"15.06383271","REF_FRAME":"TEME","MEAN_ELEMENT_THEORY":"SGP4","OBJECT_TYPE":"PAYLOAD","GP_ID":"190075143","PERIOD":"95.593","ECCENTRICITY":"0.00019790"},{"DECAY_DATE":null,"RCS_SIZE":"LARGE","TLE_LINE2":"2 47580  53.0539 234.9729 0001754  63.2451 296.8718 15.06402978 43971","PERIAPSIS":"545.990","GP_ID":"190075893","PERIOD":"95.592","MEAN_MOTION_DDOT":"0.0000000000000","EPOCH":"2021-11-19T11:52:07.427424","OBJECT_TYPE":"PAYLOAD","MEAN_MOTION":"15.06402978","REF_FRAME":"TEME","MEAN_ELEMENT_THEORY":"SGP4","ECCENTRICITY":"0.00017540","RA_OF_ASC_NODE":"234.9729","MEAN_MOTION_DOT":"0.00001700","OBJECT_NAME":"STARLINK-1982","APOAPSIS":"548.419","CLASSIFICATION_TYPE":"U","ELEMENT_SET_NO":"999","TIME_SYSTEM":"UTC","SEMIMAJOR_AXIS":"6925.339","NORAD_CAT_ID":"47580","INCLINATION":"53.0539","SITE":"AFETR","TLE_LINE1":"1 47580U 21009AJ  21323.49453041  .00001700  00000-0  13301-3 0  9996","CENTER_NAME":"EARTH","COUNTRY_CODE":"US","LAUNCH_DATE":"2021-02-04","MEAN_ANOMALY":"296.8718","EPHEMERIS_TYPE":"0","BSTAR":"0.00013301000000","REV_AT_EPOCH":"4397","FILE":"3219209","OBJECT_ID":"2021-009AJ","ARG_OF_PERICENTER":"63.2451"},{"ECCENTRICITY":"0.00018590","EPOCH":"2021-11-19T09:47:23.542368","MEAN_MOTION_DDOT":"0.0000000000000","MEAN_ELEMENT_THEORY":"SGP4","MEAN_MOTION":"15.06401871","REF_FRAME":"TEME","OBJECT_TYPE":"PAYLOAD","GP_ID":"190074640","PERIOD":"95.592","TLE_LINE2":"2 47581  53.0557 215.3702 0001859  71.5900 288.5291 15.06401871 44249","PERIAPSIS":"545.920","RCS_SIZE":"LARGE","DECAY_DATE":null,"FILE":"3219209","REV_AT_EPOCH":"4424","ARG_OF_PERICENTER":"71.5900","OBJECT_ID":"2021-009AK","BSTAR":"0.00003172500000","EPHEMERIS_TYPE":"0","COUNTRY_CODE":"US","LAUNCH_DATE":"2021-02-04","MEAN_ANOMALY":"288.5291","CENTER_NAME":"EARTH","INCLINATION":"53.0557","TLE_LINE1":"1 47581U 21009AK  21323.40791137  .00000191  00000-0  31725-4 0  9993","SITE":"AFETR","SEMIMAJOR_AXIS":"6925.343","NORAD_CAT_ID":"47581","TIME_SYSTEM":"UTC","ELEMENT_SET_NO":"999","OBJECT_NAME":"STARLINK-1984","APOAPSIS":"548.495","CLASSIFICATION_TYPE":"U","MEAN_MOTION_DOT":"0.00000191","RA_OF_ASC_NODE":"215.3702"},{"ECCENTRICITY":"0.00017660","GP_ID":"190074891","PERIOD":"95.593","EPOCH":"2021-11-19T11:04:22.374048","MEAN_MOTION_DDOT":"0.0000000000000","REF_FRAME":"TEME","MEAN_MOTION":"15.06390480","MEAN_ELEMENT_THEORY":"SGP4","OBJECT_TYPE":"PAYLOAD","PERIAPSIS":"546.020","TLE_LINE2":"2 47582  53.0563 235.1436 0001766  67.7365 292.3811 15.06390480 43973","DECAY_DATE":null,"RCS_SIZE":"LARGE","BSTAR":"0.00004218200000","EPHEMERIS_TYPE":"0","LAUNCH_DATE":"2021-02-04","COUNTRY_CODE":"US","MEAN_ANOMALY":"292.3811","FILE":"3219209","REV_AT_EPOCH":"4397","ARG_OF_PERICENTER":"67.7365","OBJECT_ID":"2021-009AL","INCLINATION":"53.0563","TLE_LINE1":"1 47582U 21009AL  21323.46137007  .00000347  00000-0  42182-4 0  9992","SITE":"AFETR","CENTER_NAME":"EARTH","TIME_SYSTEM":"UTC","ELEMENT_SET_NO":"999","SEMIMAJOR_AXIS":"6925.378","NORAD_CAT_ID":"47582","MEAN_MOTION_DOT":"0.00000347","RA_OF_ASC_NODE":"235.1436","OBJECT_NAME":"STARLINK-1986","CLASSIFICATION_TYPE":"U","APOAPSIS":"548.466"},{"SEMIMAJOR_AXIS":"6925.342","NORAD_CAT_ID":"47583","TIME_SYSTEM":"UTC","ELEMENT_SET_NO":"999","OBJECT_NAME":"STARLINK-1987","CLASSIFICATION_TYPE":"U","APOAPSIS":"548.439","MEAN_MOTION_DOT":"0.00000573","RA_OF_ASC_NODE":"236.4310","FILE":"3219209","REV_AT_EPOCH":"4393","ARG_OF_PERICENTER":"68.2707","OBJECT_ID":"2021-009AM","BSTAR":"0.00005739600000","EPHEMERIS_TYPE":"0","LAUNCH_DATE":"2021-02-04","COUNTRY_CODE":"US","MEAN_ANOMALY":"291.8471","CENTER_NAME":"EARTH","INCLINATION":"53.0536","TLE_LINE1":"1 47583U 21009AM  21323.17385501  .00000573  00000-0  57396-4 0  9999","SITE":"AFETR","PERIAPSIS":"545.975","TLE_LINE2":"2 47583  53.0536 236.4310 0001779  68.2707 291.8471 15.06402012 43936","RCS_SIZE":"LARGE","DECAY_DATE":null,"ECCENTRICITY":"0.00017790","EPOCH":"2021-11-19T04:10:21.072864","MEAN_MOTION_DDOT":"0.0000000000000","MEAN_MOTION":"15.06402012","REF_FRAME":"TEME","MEAN_ELEMENT_THEORY":"SGP4","OBJECT_TYPE":"PAYLOAD","GP_ID":"190075643","PERIOD":"95.592"},{"CLASSIFICATION_TYPE":"U","APOAPSIS":"381.922","OBJECT_NAME":"STARLINK-1988","MEAN_MOTION_DOT":"0.00008654","RA_OF_ASC_NODE":"153.6646","SEMIMAJOR_AXIS":"6757.825","NORAD_CAT_ID":"47584","TIME_SYSTEM":"UTC","ELEMENT_SET_NO":"999","CENTER_NAME":"EARTH","TLE_LINE1":"1 47584U 21009AN  21323.53062616  .00008654  00000-0  10023-3 0  9992","SITE":"AFETR","INCLINATION":"53.0496","ARG_OF_PERICENTER":"20.0150","OBJECT_ID":"2021-009AN","FILE":"3219209","REV_AT_EPOCH":"4512","BSTAR":"0.00010023000000","EPHEMERIS_TYPE":"0","COUNTRY_CODE":"US","LAUNCH_DATE":"2021-02-04","MEAN_ANOMALY":"340.0993","RCS_SIZE":"LARGE","DECAY_DATE":null,"PERIAPSIS":"377.458","TLE_LINE2":"2 47584  53.0496 153.6646 0003303  20.0150 340.0993 15.62760098 45129","MEAN_MOTION":"15.62760098","REF_FRAME":"TEME","MEAN_ELEMENT_THEORY":"SGP4","OBJECT_TYPE":"PAYLOAD","EPOCH":"2021-11-19T12:44:06.100224","MEAN_MOTION_DDOT":"0.0000000000000","PERIOD":"92.145","GP_ID":"190075394","ECCENTRICITY":"0.00033030"},{"INCLINATION":"53.0550","TLE_LINE1":"1 47585U 21009AP  21323.46506267 -.00000260  00000-0  16044-5 0  9997","SITE":"AFETR","CENTER_NAME":"EARTH","BSTAR":"0.00000160440000","EPHEMERIS_TYPE":"0","LAUNCH_DATE":"2021-02-04","MEAN_ANOMALY":"300.3632","COUNTRY_CODE":"US","FILE":"3219209","REV_AT_EPOCH":"4397","ARG_OF_PERICENTER":"59.8048","OBJECT_ID":"2021-009AP","MEAN_MOTION_DOT":"-0.00000260","RA_OF_ASC_NODE":"235.1142","OBJECT_NAME":"STARLINK-1989","CLASSIFICATION_TYPE":"U","APOAPSIS":"552.066","TIME_SYSTEM":"UTC","ELEMENT_SET_NO":"999","NORAD_CAT_ID":"47585","SEMIMAJOR_AXIS":"6925.367","GP_ID":"190074141","PERIOD":"95.593","EPOCH":"2021-11-19T11:09:41.414688","MEAN_MOTION_DDOT":"0.0000000000000","MEAN_MOTION":"15.06393941","MEAN_ELEMENT_THEORY":"SGP4","REF_FRAME":"TEME","OBJECT_TYPE":"PAYLOAD","ECCENTRICITY":"0.00069800","DECAY_DATE":null,"RCS_SIZE":"LARGE","PERIAPSIS":"542.398","TLE_LINE2":"2 47585  53.0550 235.1142 0006980  59.8048 300.3632 15.06393941 43975"}];
